{"fetched_at":"2026-03-30T06:02:59Z","count":15439,"tles":[{"name":"STARLINK-32122","line1":"1 60285U 24132H   26087.91590206  .00000104  00000+0  15649-4 0  9991","line2":"2 60285  53.1608 323.1553 0001235  91.4770 268.6372 15.30193791 94508","category":"Starlink"}]}